[
    {
        "Altitude(m)": 611967.1890036506,
        "Argument of Periapsis(deg)": 0.0,
        "Eccentricity": 0.0,
        "Inclination(deg)": 60.0,
        "Latitude(deg)": 59.14019210553076,
        "Longitude(deg)": 26.091903113481184,
        "Mean Anomaly(deg)": 98.18179999999998,
        "RAAN(deg)": 20.0,
        "Satellite Name": "Test1 94",
        "Satellite Number": 94,
        "Semi-Major Axis(m)": 6980739.136638005,
        "Time(s)": 0
    },
    {
        "Altitude(m)": 611934.3894943685,
        "Argument of Periapsis(deg)": 0.00010418945913296404,
        "Eccentricity": 0.0,
        "Inclination(deg)": 60.0,
        "Latitude(deg)": 58.98655610161445,
        "Longitude(deg)": 27.21515080407844,
        "Mean Anomaly(deg)": 98.80190614546181,
        "RAAN(deg)": 19.99957995086026,
        "Satellite Name": "Test1 94",
        "Satellite Number": 94,
        "Semi-Major Axis(m)": 6980739.136638005,
        "Time(s)": 10
    }
]